CAS-2T & KS-1Q          
1 41847U 16066G   20286.44362760  .00000051  00000-0  18839-4 0  9992
2 41847  98.6409 338.0605 0364618 240.1677 116.2803 14.38097424206238
NAYIF-1 (EO-88)         
1 42017U 17008BX  20286.15413293  .00001462  00000-0  58225-4 0  9995
2 42017  97.3488 351.9641 0004474 268.5841  91.4885 15.26826643203358
MAX VALIER SAT          
1 42778U 17036P   20286.18270754  .00000851  00000-0  39260-4 0  9995
2 42778  97.2923 336.5201 0011305 339.2816  20.7961 15.22821963183493
RADFXSAT (FOX-1B)       
1 43017U 17073E   20286.56812843  .00000807  00000-0  67500-4 0  9995
2 43017  97.7150 194.2465 0257426  29.0023 332.5215 14.79057985156478
FOX-1D (AO-92)          
1 43137U 18004AC  20286.14286037  .00000952  00000-0  41822-4 0  9997
2 43137  97.4358 356.4634 0009368  16.1103 344.0431 15.24346425152828
DIWATA-2B               
1 43678U 18084H   20286.53127315 -.00000095  00000-0 -37618-5 0  9990
2 43678  97.8963  45.0176 0010384 143.0235 217.1680 14.91657386106472
ES'HAIL 2               
1 43700U 18090A   20286.31855061  .00000140  00000-0  00000-0 0  9994
2 43700   0.0192 219.5711 0001888   7.3057 294.9632  1.00271296  6886
FOX-1CLIFF (AO-95)      
1 43770U 18099N   20286.43552910  .00000024  00000-0  74039-5 0  9999
2 43770  97.6959 355.7184 0015029 161.1211 199.0570 14.95062033101399
ITASAT 1                
1 43786U 18099AE  20286.27249572  .00000545  00000-0  54430-4 0  9995
2 43786  97.6973 356.0615 0015941 155.7885 204.4088 14.95388434101395
JY1SAT (JO-97)          
1 43803U 18099AX  20286.13891991  .00000625  00000-0  61385-4 0  9994
2 43803  97.6933 355.7227 0015914 156.3857 203.8098 14.95579260101373
PSAT2 (NO-104)          
1 44354U 19036R   20286.40803050  .00008284  00000-0  11622-3 0  9994
2 44354  28.5295 331.3542 0356241 121.9641 241.6093 15.05626320 71440
BRICSAT2 (NO-103)       
1 44355U 19036S   20286.19108442  .00016945  00000-0  22509-3 0  9993
2 44355  28.5293 316.8424 0327239 145.5242 216.7041 15.12994838 71581
JAISAT-1                
1 44419U 19038F   20286.42754901  .00000933  00000-0  56360-4 0  9992
2 44419  97.5527 246.7479 0023170  87.5884 272.7999 15.12967769 70286
DUCHIFAT-3              
1 44854U 19089C   20286.58865332  .00000370  00000-0  36218-4 0  9994
2 44854  36.9656 126.0686 0009757 291.4669  68.5040 14.99152165 45887
RS-44 & BREEZE-KM R/B   
1 44909U 19096E   20286.47564352  .00000032  00000-0  91444-4 0  9996
2 44909  82.5169 277.5516 0216591 313.1371  45.1794 12.79708529 37151
ORBITAL FACTORY 2 (OF-2)
1 45113U 19071C   20286.52234089  .00002286  00000-0  80215-4 0  9991
2 45113  51.6422 157.8573 0013509 118.2966 241.9381 15.33797049 39090
HUSKYSAT-1              
1 45119U 19071J   20286.09440378  .00000939  00000-0  39548-4 0  9995
2 45119  51.6419 159.4999 0012840 113.3354 246.8980 15.33977946 39024
